{
    "links": {
        "self": "http://www.neowsapp.com/rest/v1/neo/3824078?api_key=iIulBulltgU6a56xZRHN4H3l9WmuAYTsLGpBGhQ2"
    },
    "id": "3824078",
    "neo_reference_id": "3824078",
    "name": "(2018 JY1)",
    "designation": "2018 JY1",
    "nasa_jpl_url": "http://ssd.jpl.nasa.gov/sbdb.cgi?sstr=3824078",
    "absolute_magnitude_h": 23.5,
    "estimated_diameter": {
        "kilometers": {
            "estimated_diameter_min": 0.0530340723,
            "estimated_diameter_max": 0.1185877909
        },
        "meters": {
            "estimated_diameter_min": 53.0340723319,
            "estimated_diameter_max": 118.5877908577
        },
        "miles": {
            "estimated_diameter_min": 0.0329538346,
            "estimated_diameter_max": 0.0736870142
        },
        "feet": {
            "estimated_diameter_min": 173.9963058693,
            "estimated_diameter_max": 389.0675677576
        }
    },
    "is_potentially_hazardous_asteroid": false,
    "close_approach_data": [
        {
            "close_approach_date": "2004-03-24",
            "close_approach_date_full": "2004-Mar-24 09:26",
            "epoch_date_close_approach": 1080120360000,
            "relative_velocity": {
                "kilometers_per_second": "17.2427951425",
                "kilometers_per_hour": "62074.0625130842",
                "miles_per_hour": "38570.4084543106"
            },
            "miss_distance": {
                "astronomical": "0.3654469013",
                "lunar": "142.1588446057",
                "kilometers": "54670078.032580231",
                "miles": "33970411.2605439478"
            },
            "orbiting_body": "Earth"
        },
        {
            "close_approach_date": "2011-04-06",
            "close_approach_date_full": "2011-Apr-06 15:51",
            "epoch_date_close_approach": 1302105060000,
            "relative_velocity": {
                "kilometers_per_second": "11.782670658",
                "kilometers_per_hour": "42417.6143689638",
                "miles_per_hour": "26356.655994982"
            },
            "miss_distance": {
                "astronomical": "0.1895986671",
                "lunar": "73.7538815019",
                "kilometers": "28363556.752999077",
                "miles": "17624296.9168061826"
            },
            "orbiting_body": "Earth"
        },
        {
            "close_approach_date": "2018-05-21",
            "close_approach_date_full": "2018-May-21 19:12",
            "epoch_date_close_approach": 1526929920000,
            "relative_velocity": {
                "kilometers_per_second": "6.9312475266",
                "kilometers_per_hour": "24952.4910956898",
                "miles_per_hour": "15504.5075922079"
            },
            "miss_distance": {
                "astronomical": "0.0739649159",
                "lunar": "28.7723522851",
                "kilometers": "11064993.873369133",
                "miles": "6875468.3732067154"
            },
            "orbiting_body": "Earth"
        },
        {
            "close_approach_date": "2023-07-13",
            "close_approach_date_full": "2023-Jul-13 04:47",
            "epoch_date_close_approach": 1689223620000,
            "relative_velocity": {
                "kilometers_per_second": "3.5678583371",
                "kilometers_per_hour": "12844.2900135362",
                "miles_per_hour": "7980.9423142442"
            },
            "miss_distance": {
                "astronomical": "1.7223756401",
                "lunar": "670.0041239989",
                "kilometers": "257663727.098846587",
                "miles": "160104815.8602614206"
            },
            "orbiting_body": "Juptr"
        },
        {
            "close_approach_date": "2025-06-29",
            "close_approach_date_full": "2025-Jun-29 18:25",
            "epoch_date_close_approach": 1751221500000,
            "relative_velocity": {
                "kilometers_per_second": "17.5098106982",
                "kilometers_per_hour": "63035.3185136424",
                "miles_per_hour": "39167.6955508796"
            },
            "miss_distance": {
                "astronomical": "0.3720388003",
                "lunar": "144.7230933167",
                "kilometers": "55656212.082235361",
                "miles": "34583166.5451595418"
            },
            "orbiting_body": "Earth"
        }
    ],
    "orbital_data": {
        "orbit_id": "17",
        "orbit_determination_date": "2018-07-24 06:23:23",
        "first_observation_date": "2018-05-09",
        "last_observation_date": "2018-06-10",
        "data_arc_in_days": 32,
        "observations_used": 110,
        "orbit_uncertainty": "6",
        "minimum_orbit_intersection": ".0618365",
        "jupiter_tisserand_invariant": "3.367",
        "epoch_osculation": "2459000.5",
        "eccentricity": ".5411727976816874",
        "semi_major_axis": "2.31724345394586",
        "inclination": "2.425821798499524",
        "ascending_node_longitude": "183.4549633197691",
        "orbital_period": "1288.415446530737",
        "perihelion_distance": "1.063214331064403",
        "perihelion_argument": "44.74871377785448",
        "aphelion_distance": "3.571272576827318",
        "perihelion_time": "2459539.162527474705",
        "mean_anomaly": "209.4906977302622",
        "mean_motion": ".2794129804709787",
        "equinox": "J2000",
        "orbit_class": {
            "orbit_class_type": "AMO",
            "orbit_class_description": "Near-Earth asteroid orbits similar to that of 1221 Amor",
            "orbit_class_range": "1.017 AU < q (perihelion) < 1.3 AU"
        }
    },
    "is_sentry_object": false
}